[{"OBJECT_NAME":"SHERPA-FX2 & TAGSAT-2","OBJECT_ID":"2021-059CH","EPOCH":"2026-03-09T23:13:51.251520","MEAN_MOTION":15.52139464,"ECCENTRICITY":0.0006571,"INCLINATION":97.6905,"RA_OF_ASC_NODE":255.7235,"ARG_OF_PERICENTER":345.3561,"MEAN_ANOMALY":14.7499,"EPHEMERIS_TYPE":0,"CLASSIFICATION_TYPE":"U","NORAD_CAT_ID":48958,"ELEMENT_SET_NO":999,"REV_AT_EPOCH":26201,"BSTAR":0.0003861171,"MEAN_MOTION_DOT":0.00023295,"MEAN_MOTION_DDOT":0},{"OBJECT_NAME":"FLOCK 4Q-35","OBJECT_ID":"2023-174BF","EPOCH":"2026-03-09T21:44:34.605312","MEAN_MOTION":15.50220638,"ECCENTRICITY":0.00080298,"INCLINATION":97.3893,"RA_OF_ASC_NODE":157.9669,"ARG_OF_PERICENTER":147.4932,"MEAN_ANOMALY":212.6815,"EPHEMERIS_TYPE":0,"CLASSIFICATION_TYPE":"U","NORAD_CAT_ID":58309,"ELEMENT_SET_NO":999,"REV_AT_EPOCH":13039,"BSTAR":0.00066451051,"MEAN_MOTION_DOT":0.00037604,"MEAN_MOTION_DDOT":0}]
